{
    "links": {
        "self": "http://www.neowsapp.com/rest/v1/neo/3552687?api_key=iIulBulltgU6a56xZRHN4H3l9WmuAYTsLGpBGhQ2"
    },
    "id": "3552687",
    "neo_reference_id": "3552687",
    "name": "(2010 XL)",
    "designation": "2010 XL",
    "nasa_jpl_url": "http://ssd.jpl.nasa.gov/sbdb.cgi?sstr=3552687",
    "absolute_magnitude_h": 23.8,
    "estimated_diameter": {
        "kilometers": {
            "estimated_diameter_min": 0.046190746,
            "estimated_diameter_max": 0.1032856481
        },
        "meters": {
            "estimated_diameter_min": 46.1907460282,
            "estimated_diameter_max": 103.2856480504
        },
        "miles": {
            "estimated_diameter_min": 0.0287015901,
            "estimated_diameter_max": 0.0641787064
        },
        "feet": {
            "estimated_diameter_min": 151.544447199,
            "estimated_diameter_max": 338.8636855496
        }
    },
    "is_potentially_hazardous_asteroid": false,
    "close_approach_data": [
        {
            "close_approach_date": "2010-11-20",
            "close_approach_date_full": "2010-Nov-20 23:42",
            "epoch_date_close_approach": 1290296520000,
            "relative_velocity": {
                "kilometers_per_second": "19.0109225449",
                "kilometers_per_hour": "68439.3211615097",
                "miles_per_hour": "42525.5326406058"
            },
            "miss_distance": {
                "astronomical": "0.1571345898",
                "lunar": "61.1253554322",
                "kilometers": "23506999.937403726",
                "miles": "14606572.4453383788"
            },
            "orbiting_body": "Earth"
        }
    ],
    "orbital_data": {
        "orbit_id": "6",
        "orbit_determination_date": "2017-04-06 08:55:28",
        "first_observation_date": "2010-12-01",
        "last_observation_date": "2010-12-02",
        "data_arc_in_days": 1,
        "observations_used": 16,
        "orbit_uncertainty": "9",
        "minimum_orbit_intersection": ".147248",
        "jupiter_tisserand_invariant": "4.347",
        "epoch_osculation": "2455531.5",
        "eccentricity": ".4236490460958314",
        "semi_major_axis": "1.475114512406767",
        "inclination": "31.77087607159686",
        "ascending_node_longitude": "247.8912225197728",
        "orbital_period": "654.3905670323945",
        "perihelion_distance": ".8501836563435226",
        "perihelion_argument": "93.70048660634068",
        "aphelion_distance": "2.100045368470011",
        "perihelion_time": "2455457.793370116556",
        "mean_anomaly": "40.54824151633331",
        "mean_motion": ".5501301793400986",
        "equinox": "J2000",
        "orbit_class": {
            "orbit_class_type": "APO",
            "orbit_class_description": "Near-Earth asteroid orbits which cross the Earth’s orbit similar to that of 1862 Apollo",
            "orbit_class_range": "a (semi-major axis) > 1.0 AU; q (perihelion) < 1.017 AU"
        }
    },
    "is_sentry_object": false
}